satname,norad_id,inclination_deg,eccentricity,mean_motion_rev_per_day,perigee_km,apogee_km,l1,l2
STARLINK-1008,44714,53.1576,0.0001266,15.31022815,471.8920690098512,473.6267159764302,1 44714U 19074B   26031.91670139  .00020226  00000+0  67580-3 0  9999,2 44714  53.1576 349.7908 0001266  96.2962  56.0852 15.31022815  5636
STARLINK-1012,44718,53.1575,0.0001048,15.30197452,474.5044452044194,475.94090939278067,1 44718U 19074F   26031.26149391  .00002035  00000+0  80813-4 0  9995,2 44718  53.1575 352.6607 0001048  95.8462 264.2658 15.30197452343132
STARLINK-1017,44723,53.0456,0.0002612,15.21364198,499.9277647494582,503.5218045457568,1 44723U 19074L   26031.84808074  .00041764  00000+0  18439-2 0  9990,2 44723  53.0456 341.0242 0002612  97.4003 262.7289 15.21364198343359
STARLINK-1019,44724,53.0503,0.0011234,15.70037909,351.22030151949093,366.35682587600695,1 44724U 19074M   26031.91670139  .00143948  00000+0  11530-2 0  9990,2 44724  53.0503 320.1371 0011234  73.6692  54.7199 15.70037909  5742
STARLINK-1020,44725,53.056,0.0001494,15.06404043,546.1645215299777,548.2338119766027,1 44725U 19074N   26031.33136332  .00000318  00000+0  40263-4 0  9999,2 44725  53.0560  14.3271 0001494  85.2674 274.8486 15.06404043342837
STARLINK-1031,44736,53.0461,0.0007476,15.75487242,338.22012983267086,348.2699402514645,1 44736U 19074Z   26031.91670139  .00060566  00000+0  39156-3 0  9992,2 44736  53.0461 305.3873 0007476 102.2685  40.3705 15.75487242  5809
STARLINK-1036,44741,53.0554,0.0004043,15.48005835,419.81079340607175,425.30983725524857,1 44741U 19074AE  26031.91670139  .00151266  00000+0  27995-2 0  9993,2 44741  53.0554   5.5154 0004043  93.1153 323.6109 15.48005835  5858
STARLINK-1039,44744,53.052,0.0005419,15.18451873,506.78586396021274,514.2517891450298,1 44744U 19074AH  26031.39882212  .00022856  00000+0  11076-2 0  9990,2 44744  53.0520  26.0722 0005419  63.5143 296.6407 15.18451873342680
STARLINK-1042,44747,53.0438,0.0003823,15.47874323,420.34546099304225,425.5455686838877,1 44747U 19074AL  26031.87236299  .00021301  00000+0  40985-3 0  9990,2 44747  53.0438 271.1744 0003823  85.2567 274.8877 15.47874323344363
STARLINK-1043,44748,53.0539,0.0002891,15.51007502,411.8196725646894,415.7467608339857,1 44748U 19074AM  26031.31714183  .00027245  00000+0  46733-3 0  9993,2 44748  53.0539  14.4587 0002891  33.1626 326.9563 15.51007502342845
STARLINK-1046,44751,53.0547,0.0005252,15.4006007,442.3478628342291,449.5158647687658,1 44751U 19074AQ  26031.91670139  .00139030  00000+0  33723-2 0  9995,2 44751  53.0547  25.2086 0005252  60.9997 230.3745 15.40060070  5871
STARLINK-1047,44752,53.0723,0.0004951,15.31680449,467.4073685039011,474.18918421455146,1 44752U 19074AR  26031.18341098  .00010448  00000+0  34812-3 0  9996,2 44752  53.0723 321.0959 0004951  96.1212 264.0353 15.31680449343591
STARLINK-1048,44753,53.0552,0.0005358,15.43898984,430.9648395886443,438.265384752046,1 44753U 19074AS  26031.91670139  .00103662  00000+0  22246-2 0  9997,2 44753  53.0552 345.3175 0005358  92.7715 359.3078 15.43898984  5879
STARLINK-1053,44758,53.0316,0.0002627,15.77782605,334.9606010590642,338.488589341182,1 44758U 19074AX  26031.91670139  .00038696  00000+0  22840-3 0  9997,2 44758  53.0316 269.0923 0002627 145.4768   5.7629 15.77782605  6037
STARLINK-1060,44765,53.0396,0.0002702,16.03264011,263.59146799403334,267.1816281194042,1 44765U 19074BE  26031.80443266  .00474576  11333-3  75124-3 0  9991,2 44765  53.0396 308.7247 0002702 185.0800 175.0203 16.03264011343796
STARLINK-1063,44768,53.1555,0.0001488,15.29327246,476.8020280106939,478.84236146704825,1 44768U 19074BH  26031.91670139  .00059936  00000+0  20745-2 0  9999,2 44768  53.1555  30.1801 0001488  76.1455 307.1097 15.29327246  5785
STARLINK-1067,44771,53.0546,0.000594,15.47783255,419.172284095318,427.2522870465755,1 44771U 19074BL  26031.91670139  .00146583  00000+0  27350-2 0  9997,2 44771  53.0546  21.4609 0005940  78.2778  80.9644 15.47783255  5943
STARLINK-1068,44772,53.054,0.0003674,15.54840596,400.12478804621514,405.1072853775904,1 44772U 19074BM  26031.91670139  .00173624  00000+0  25098-2 0  9991,2 44772  53.0540 358.8076 0003674  93.9714  22.6262 15.54840596  5948
STARLINK-1112,44925,53.0407,0.0002335,15.83353274,319.40129430668276,322.5297751904109,1 44925U 20001M   26031.91670139  .00247563  00000+0  10887-2 0  9997,2 44925  53.0407  69.6725 0002335 355.2389  96.4509 15.83353274  6031
STARLINK-1114,44927,53.0524,0.0004853,15.44087989,430.7531960765846,437.36511366450213,1 44927U 20001P   26031.91670139  .00067921  00000+0  14583-2 0  9994,2 44927  53.0524 145.0326 0004853 345.8859 354.2505 15.44087989  5868
STARLINK-1123,44930,53.0545,0.0001425,15.06395754,546.2377073233911,548.211435371225,1 44930U 20001S   26031.70179528  .00001198  00000+0  99291-4 0  9996,2 44930  53.0545 152.6657 0001425  94.7308 265.3844 15.06395754334275
STARLINK-1144,44933,53.0319,0.0007306,16.01367786,265.77244744020845,275.4876258341437,1 44933U 20001V   26031.42739840  .00454705  10195-3  80293-3 0  9994,2 44933  53.0319  42.1079 0007306  42.4463 317.7131 16.01367786337098
STARLINK-1094,44941,53.1599,0.0001315,15.29296174,477.01348911484365,478.8166308066129,1 44941U 20001AD  26031.91670139  .00229870  00000+0  77489-2 0  9997,2 44941  53.1599 130.3688 0001315  96.2832 295.4968 15.29296174  5841
STARLINK-1122,44949,53.1567,0.0001251,15.29375255,476.8210533590018,478.5363784511219,1 44949U 20001AM  26031.91670139 -.00021968  00000+0 -75072-3 0  9992,2 44949  53.1567 130.3565 0001251  84.0817 192.9343 15.29375255  5784
STARLINK-1080,44961,53.0533,0.0006632,15.42470104,434.3008221129994,443.34283630406117,1 44961U 20001AZ  26031.66465514  .00057996  00000+0  13175-2 0  9990,2 44961  53.0533 104.3518 0006632 352.8481   7.2428 15.42470104334950
STARLINK-1090,44968,53.0562,0.0001672,15.06376563,546.1254596098579,548.4413201882398,1 44968U 20001BG  26031.60598544  .00000014  00000+0  19832-4 0  9998,2 44968  53.0562 113.0937 0001672 101.8983 258.2194 15.06376563334827
STARLINK-1132,45044,53.1598,0.0002729,15.37993425,450.1796680389334,453.9075806236924,1 45044U 20006A   26031.49634382  .00082303  00000+0  21568-2 0  9995,2 45044  53.1598  69.5955 0002729  66.4740 293.6550 15.37993425331191
STARLINK-1131,45047,53.1286,0.0001515,15.23901276,493.04553080227834,495.1278145751039,1 45047U 20006D   26031.91670139  .01327361  00000+0  50064-1 0  9994,2 45047  53.1286  91.6500 0001515 113.4283  89.8743 15.23901276  5732
STARLINK-1134,45048,53.0348,0.0005594,15.38628213,446.34513601222807,453.98464016462185,1 45048U 20006E   26031.34620247  .00067896  00000+0  17472-2 0  9997,2 45048  53.0348  55.2856 0005594  60.7076 299.4485 15.38628213331384
STARLINK-1156,45054,53.1033,0.0001832,15.180057,510.6063228779567,513.1308209195004,1 45054U 20006L   26031.91670139  .01393869  00000+0  62150-1 0  9997,2 45054  53.1033  91.4439 0001832  91.4830  86.8179 15.18005700  5791
STARLINK-1159,45057,53.0479,0.0004948,15.69162963,357.95794590171863,364.6272854493909,1 45057U 20006P   26031.91670139  .00203263  00000+0  16785-2 0  9991,2 45057  53.0479  58.2310 0004948 352.1904  18.2359 15.69162963  5998
STARLINK-1166,45060,53.0537,0.0002499,15.40177912,443.8785297086415,447.2890253532514,1 45060U 20006S   26031.85060310  .00065906  00000+0  16134-2 0  9990,2 45060  53.0537  87.5829 0002499  30.0846 330.0301 15.40177912330973
STARLINK-1169,45061,53.102,6.04e-05,15.18221861,510.798450588316,511.6306842576596,1 45061U 20006T   26031.91670139  .00079850  00000+0  38278-2 0  9990,2 45061  53.1020  91.3906 0000604  45.8797 342.2392 15.18221861  5833
STARLINK-1171,45062,53.0485,0.0005266,15.49892133,413.46299024447944,420.61967206285044,1 45062U 20006U   26031.91670139  .00153496  00000+0  26577-2 0  9999,2 45062  53.0485  67.0026 0005266 269.5342  43.2321 15.49892133  5886
STARLINK-1133,45064,53.1593,0.0001269,15.30198648,474.34941536071256,476.0887971404791,1 45064U 20006W   26031.91670139  .00053382  00000+0  18016-2 0  9993,2 45064  53.1593  68.6097 0001269  92.1250  37.3878 15.30198648  5781
STARLINK-1167,45071,53.1615,0.0001796,15.29349327,476.52488450790133,478.9875213463929,1 45071U 20006AD  26031.50891883  .00000859  00000+0  42132-4 0  9996,2 45071  53.1615  70.3337 0001796  73.7765 286.3433 15.29349327331181
STARLINK-1168,45072,53.1594,0.0001241,15.29355267,476.88763662680503,478.58926491368675,1 45072U 20006AE  26031.38800594 -.00000663  00000+0 -10637-4 0  9992,2 45072  53.1594  70.9560 0001241  92.4080 267.7063 15.29355267331165
STARLINK-1172,45074,53.1586,0.0001371,15.30182555,474.32755582970094,476.2067592496978,1 45074U 20006AG  26031.47817096 -.00002274  00000+0 -64708-4 0  9997,2 45074  53.1586  70.6692 0001371  95.0181 265.0976 15.30182555331171
STARLINK-1153,45080,53.1616,0.0001411,15.29355428,476.77060565247757,478.70533356890246,1 45080U 20006AN  26031.82007628  .00001983  00000+0  81021-4 0  9996,2 45080  53.1616  68.8079 0001411  80.3324 279.7836 15.29355428331234
STARLINK-1151,45081,53.0524,0.0009958,15.51477485,405.64948602981804,419.1735424507797,1 45081U 20006AP  26031.91670139  .00159445  00000+0  26041-2 0  9996,2 45081  53.0524  58.1316 0009958  15.2689 313.9531 15.51477485  5956
STARLINK-1185,45087,53.0631,0.0001261,15.09083647,538.1265069399678,539.8710085780749,1 45087U 20006AV  26031.91670139  .00089350  00000+0  55243-2 0  9995,2 45087  53.0631  51.6805 0001261  88.4753 257.6928 15.09083647  5720
STARLINK-1183,45088,53.0538,0.0001715,15.06403626,546.0127494210265,548.3881401645904,1 45088U 20006AW  26031.47880642  .00001522  00000+0  12102-3 0  9992,2 45088  53.0538  53.6667 0001715 103.7588 256.3592 15.06403626331417
STARLINK-1152,45096,53.0415,0.0005618,15.33976417,460.1186163422608,467.80639934927694,1 45096U 20006BE  26031.38093943  .00069547  00000+0  20772-2 0  9993,2 45096  53.0415  21.8143 0005618  71.4599 288.7012 15.33976417331852
